{
    "links": {
        "self": "http://www.neowsapp.com/rest/v1/neo/3782062?api_key=iIulBulltgU6a56xZRHN4H3l9WmuAYTsLGpBGhQ2"
    },
    "id": "3782062",
    "neo_reference_id": "3782062",
    "name": "(2017 TE1)",
    "designation": "2017 TE1",
    "nasa_jpl_url": "http://ssd.jpl.nasa.gov/sbdb.cgi?sstr=3782062",
    "absolute_magnitude_h": 25.2,
    "estimated_diameter": {
        "kilometers": {
            "estimated_diameter_min": 0.0242412481,
            "estimated_diameter_max": 0.0542050786
        },
        "meters": {
            "estimated_diameter_min": 24.2412481101,
            "estimated_diameter_max": 54.2050786336
        },
        "miles": {
            "estimated_diameter_min": 0.0150628086,
            "estimated_diameter_max": 0.0336814639
        },
        "feet": {
            "estimated_diameter_min": 79.5316564495,
            "estimated_diameter_max": 177.8381901842
        }
    },
    "is_potentially_hazardous_asteroid": false,
    "close_approach_data": [
        {
            "close_approach_date": "2017-09-28",
            "close_approach_date_full": "2017-Sep-28 15:15",
            "epoch_date_close_approach": 1506611700000,
            "relative_velocity": {
                "kilometers_per_second": "8.8628758433",
                "kilometers_per_hour": "31906.353035834",
                "miles_per_hour": "19825.3669738492"
            },
            "miss_distance": {
                "astronomical": "0.0117609242",
                "lunar": "4.5749995138",
                "kilometers": "1759409.209551454",
                "miles": "1093246.1883159052"
            },
            "orbiting_body": "Earth"
        }
    ],
    "orbital_data": {
        "orbit_id": "5",
        "orbit_determination_date": "2017-11-03 06:43:11",
        "first_observation_date": "2017-10-01",
        "last_observation_date": "2017-10-20",
        "data_arc_in_days": 19,
        "observations_used": 29,
        "orbit_uncertainty": "8",
        "minimum_orbit_intersection": ".00852278",
        "jupiter_tisserand_invariant": "3.419",
        "epoch_osculation": "2458032.5",
        "eccentricity": ".551305734213425",
        "semi_major_axis": "2.226751059954179",
        "inclination": "7.59765763408561",
        "ascending_node_longitude": "189.9583171912965",
        "orbital_period": "1213.684843332783",
        "perihelion_distance": ".999130431935618",
        "perihelion_argument": "165.0235839431008",
        "aphelion_distance": "3.45437168797274",
        "perihelion_time": "2458016.359030997086",
        "mean_anomaly": "4.787691691932729",
        "mean_motion": ".296617364860089",
        "equinox": "J2000",
        "orbit_class": {
            "orbit_class_type": "APO",
            "orbit_class_description": "Near-Earth asteroid orbits which cross the Earth’s orbit similar to that of 1862 Apollo",
            "orbit_class_range": "a (semi-major axis) > 1.0 AU; q (perihelion) < 1.017 AU"
        }
    },
    "is_sentry_object": false
}